NORAD_CAT_ID,OBJECT_NAME,OBJECT_TYPE,EPOCH,MEAN_MOTION,ECCENTRICITY,INCLINATION,RA_OF_ASC_NODE,ARG_OF_PERICENTER,MEAN_ANOMALY,BSTAR,MEAN_MOTION_DOT,MEAN_MOTION_DDOT,TLE_LINE0,TLE_LINE1,TLE_LINE2,SEMIMAJOR_AXIS,PERIOD,APOGEE,PERIGEE,DECAYED
51724.0,STARLINK-3529,PAYLOAD,2023-01-02 18:56:35,15.08841291,0.0002759,53.2175,145.1005,40.3757,319.744,7.8971e-05,9.69e-06,0.0,0 STARLINK-3529,1 51724U 22016L   23002.78929863  .00000969  00000-0  78971-4 0  9999,2 51724  53.2175 145.1005 0002759  40.3757 319.7440 15.08841291 48019,6917.876,95.437,541.65,537.8330000000002,0.0
51724.0,STARLINK-3529,PAYLOAD,2023-01-03 02:53:30,15.08850451,0.0002331,53.2176,143.6139,46.2504,313.8681,9.7967e-05,1.272e-05,0.0,0 STARLINK-3529,1 51724U 22016L   23003.12049063  .00001272  00000-0  97967-4 0  9997,2 51724  53.2176 143.6139 0002331  46.2504 313.8681 15.08850451 49125,6917.848000000001,95.437,541.326,538.101,0.0
51724.0,STARLINK-3529,PAYLOAD,2023-01-03 09:15:03,15.088362300000002,0.0002731,53.2192,142.4244,44.1113,316.0097,0.00020326,2.948e-05,0.0,0 STARLINK-3529,1 51724U 22016L   23003.38546025  .00002948  00000-0  20326-3 0  9990,2 51724  53.2192 142.4244 0002731  44.1113 316.0097 15.08836230 48106,6917.892,95.438,541.646,537.868,0.0
51724.0,STARLINK-3529,PAYLOAD,2023-01-03 15:36:36,15.08840287,0.0002782,53.2177,141.2361,39.2039,320.9154,0.00011249,1.502e-05,0.0,0 STARLINK-3529,1 51724U 22016L   23003.65041959  .00001502  00000-0  11249-3 0  9995,2 51724  53.2177 141.2361 0002782  39.2039 320.9154 15.08840287 49201,6917.88,95.438,541.669,537.82,0.0
51724.0,STARLINK-3529,PAYLOAD,2023-01-04 09:05:50,15.08843437,0.000285,53.2176,137.965,42.611,317.5103,0.00013263,1.823e-05,0.0,0 STARLINK-3529,1 51724U 22016L   23004.37906027  .00001823  00000-0  13263-3 0  9995,2 51724  53.2176 137.9650 0002850  42.6110 317.5103 15.08843437 48257,6917.87,95.437,541.706,537.763,0.0
51724.0,STARLINK-3529,PAYLOAD,2023-01-04 15:27:22,15.08852228,0.0002819,53.2179,136.7763,38.7843,321.3351,0.00020805,3.025e-05,0.0,0 STARLINK-3529,1 51724U 22016L   23004.64401278  .00003025  00000-0  20805-3 0  9999,2 51724  53.2179 136.7763 0002819  38.7843 321.3351 15.08852228 49354,6917.843000000003,95.437,541.658,537.758,0.0
51724.0,STARLINK-3529,PAYLOAD,2023-01-05 12:07:21,15.08880345,0.000306,53.2158,132.9091,38.0149,322.1059,-0.00054018,-8.886e-05,0.0,0 STARLINK-3529,1 51724U 22016L   23005.50511145 -.00008886  00000-0 -54018-3 0  9995,2 51724  53.2158 132.9091 0003060  38.0149 322.1059 15.08880345 49483,6917.757,95.435,541.739,537.505,0.0
51724.0,STARLINK-3529,PAYLOAD,2023-01-05 18:28:55,15.08852446,0.0002928999999999,53.2156,131.7209,32.9965,327.1209,0.0001199999999999,1.622e-05,0.0,0 STARLINK-3529,1 51724U 22016L   23005.77008604  .00001622  00000-0  12000-3 0  9999,2 51724  53.2156 131.7209 0002929  32.9965 327.1209 15.08852446 48461,6917.842,95.437,541.734,537.681,0.0
51724.0,STARLINK-3529,PAYLOAD,2023-01-06 07:12:00,15.0884424,0.000333,53.2162,129.3408,41.3033,318.821,-9.4457e-05,-1.792e-05,0.0,0 STARLINK-3529,1 51724U 22016L   23006.30001000 -.00001792  00000-0 -94457-4 0  9999,2 51724  53.2162 129.3408 0003330  41.3033 318.8210 15.08844240 49608,6917.866999999998,95.437,542.036,537.429,0.0
51724.0,STARLINK-3529,PAYLOAD,2023-01-06 18:19:43,15.08827477,0.0002708,53.2175,127.2593,35.0039,325.1131,-0.00028213,-4.775e-05,0.0,0 STARLINK-3529,1 51724U 22016L   23006.76369854 -.00004775  00000-0 -28213-3 0  9993,2 51724  53.2175 127.2593 0002708  35.0039 325.1131 15.08827477 49671,6917.919,95.438,541.6569999999998,537.91,0.0
51724.0,STARLINK-3529,PAYLOAD,2023-01-07 00:41:15,15.0883354,0.0002733,53.2182,126.0708,34.2753,325.8415,-0.00016137,-2.856e-05,0.0,0 STARLINK-3529,1 51724U 22016L   23007.02865648 -.00002856  00000-0 -16137-3 0  9995,2 51724  53.2182 126.0708 0002733  34.2753 325.8415 15.08833540 49711,6917.9,95.438,541.656,537.874,0.0
51724.0,STARLINK-3529,PAYLOAD,2023-01-07 18:10:30,15.08828711,0.0002777,53.2171,122.8001,26.6111,333.5023,0.00020685,3.004e-05,0.0,0 STARLINK-3529,1 51724U 22016L   23007.75730320  .00003004  00000-0  20685-3 0  9990,2 51724  53.2171 122.8001 0002777  26.6111 333.5023 15.08828711 48769,6917.915,95.438,541.701,537.859,0.0
51724.0,STARLINK-3529,PAYLOAD,2023-01-08 06:53:36,15.08830752,0.000263,53.2178,120.4211,27.1315,332.9814,0.00013207,1.814e-05,0.0,0 STARLINK-3529,1 51724U 22016L   23008.28722559  .00001814  00000-0  13207-3 0  9993,2 51724  53.2178 120.4211 0002630  27.1315 332.9814 15.08830752 49909,6917.9090000000015,95.438,541.5930000000002,537.9540000000002,0.0
51724.0,STARLINK-3529,PAYLOAD,2023-01-08 08:28:59,15.08834072,0.0002565,53.2155,120.1235,25.3907,334.721,0.00026068,3.862e-05,0.0,0 STARLINK-3529,1 51724U 22016L   23008.35346448  .00003862  00000-0  26068-3 0  9994,2 51724  53.2155 120.1235 0002565  25.3907 334.7210 15.08834072 48853,6917.899,95.438,541.538,537.989,0.0
51724.0,STARLINK-3529,PAYLOAD,2023-01-08 16:25:53,15.08870703,0.0002332,53.2176,118.6348,33.1316,326.9822,0.00077981,0.00012155,0.0,0 STARLINK-3529,1 51724U 22016L   23008.68464626  .00012155  00000-0  77981-3 0  9994,2 51724  53.2176 118.6348 0002332  33.1316 326.9822 15.08870703 49962,6917.786999999998,95.436,541.265,538.038,0.0
51724.0,STARLINK-3529,PAYLOAD,2023-01-09 06:44:21,15.08843754,0.0002715,53.2175,115.9614,22.9957,337.1157,-7.8314e-05,-1.535e-05,0.0,0 STARLINK-3529,1 51724U 22016L   23009.28080611 -.00001535  00000-0 -78314-4 0  9993,2 51724  53.2175 115.9614 0002715  22.9957 337.1157 15.08843754 50052,6917.8690000000015,95.437,541.612,537.856,0.0
51724.0,STARLINK-3529,PAYLOAD,2023-01-09 13:05:54,15.08837753,0.000258,53.217,114.7704,22.346,337.7644,-0.00020285,-3.515e-05,0.0,0 STARLINK-3529,1 51724U 22016L   23009.54576690 -.00003515  00000-0 -20285-3 0  9992,2 51724  53.2170 114.7704 0002580  22.3460 337.7644 15.08837753 49032,6917.887,95.438,541.5369999999998,537.967,0.0
51724.0,STARLINK-3529,PAYLOAD,2023-01-09 16:16:40,15.08837563,0.0002601,53.217,114.1758,22.2787,337.8318,-0.00020822,-3.601e-05,0.0,0 STARLINK-3529,1 51724U 22016L   23009.67824681 -.00003601  00000-0 -20822-3 0  9995,2 51724  53.2170 114.1758 0002601  22.2787 337.8318 15.08837563 49050,6917.888000000001,95.438,541.552,537.953,0.0
51724.0,STARLINK-3529,PAYLOAD,2023-01-10 06:35:09,15.08832262,0.0002411,53.2166,111.5004,24.2857,335.8248,-7.975e-05,-1.557e-05,0.0,0 STARLINK-3529,1 51724U 22016L   23010.27441561 -.00001557  00000-0 -79750-4 0  9998,2 51724  53.2166 111.5004 0002411  24.2857 335.8248 15.08832262 50209,6917.904,95.438,541.437,538.101,0.0
51724.0,STARLINK-3529,PAYLOAD,2023-01-10 12:56:41,15.08837863,0.0003143,53.2163,110.3121,16.2162,343.8930000000001,-6.7865e-05,-1.369e-05,0.0,0 STARLINK-3529,1 51724U 22016L   23010.53937353 -.00001369  00000-0 -67865-4 0  9991,2 51724  53.2163 110.3121 0003143  16.2162 343.8930 15.08837863 49180,6917.887,95.438,541.9259999999998,537.578,0.0
51724.0,STARLINK-3529,PAYLOAD,2023-01-10 16:07:28,15.0883577,0.0003117,53.2163,109.7178,16.622,343.4874,-0.00013349,-2.413e-05,0.0,0 STARLINK-3529,1 51724U 22016L   23010.67185200 -.00002413  00000-0 -13349-3 0  9990,2 51724  53.2163 109.7178 0003117  16.6220 343.4874 15.08835770 49205,6917.893,95.438,541.915,537.602,0.0
51724.0,STARLINK-3529,PAYLOAD,2023-01-11 12:47:30,15.08826828,0.0002583999999999,53.2163,105.8478,33.3421,326.7734,0.0002837,4.228e-05,0.0,0 STARLINK-3529,1 51724U 22016L   23011.53298858  .00004228  00000-0  28370-3 0  9994,2 51724  53.2163 105.8478 0002584  33.3421 326.7734 15.08826828 50396,6917.920999999999,95.438,541.573,537.998,0.0
51724.0,STARLINK-3529,PAYLOAD,2023-01-11 15:58:16,15.08829239,0.0002673,53.2163,105.2536,31.4067,328.7084,0.00034338,5.179e-05,0.0,0 STARLINK-3529,1 51724U 22016L   23011.66546982  .00005179  00000-0  34338-3 0  9999,2 51724  53.2163 105.2536 0002673  31.4067 328.7084 15.08829239 49352,6917.913000000001,95.438,541.627,537.929,0.0
51724.0,STARLINK-3529,PAYLOAD,2023-01-12 22:10:37,15.08832411,0.0002779,53.216,99.6055,28.5157,331.5987,0.00024921,3.679e-05,0.0,0 STARLINK-3529,1 51724U 22016L   23012.92404056  .00003679  00000-0  24921-3 0  9994,2 51724  53.2160  99.6055 0002779  28.5157 331.5987 15.08832411 50605,6917.904,95.438,541.691,537.846,0.0
51724.0,STARLINK-3529,PAYLOAD,2023-01-13 12:29:05,15.08846195,0.0002633,53.2154,96.9292,32.7574,327.3581,0.00036298,5.494e-05,0.0,0 STARLINK-3529,1 51724U 22016L   23013.52019856  .00005494  00000-0  36298-3 0  9998,2 51724  53.2154  96.9292 0002633  32.7574 327.3581 15.08846195 49638,6917.861,95.437,541.548,537.905,0.0
51724.0,STARLINK-3529,PAYLOAD,2023-01-13 22:01:24,15.08839995,0.0002568,53.2137,95.1466,30.4262,329.6878,0.00015413,2.165e-05,0.0,0 STARLINK-3529,1 51724U 22016L   23013.91764030  .00002165  00000-0  15413-3 0  9990,2 51724  53.2137  95.1466 0002568  30.4262 329.6878 15.08839995 49699,6917.88,95.438,541.5219999999999,537.969,0.0
51724.0,STARLINK-3529,PAYLOAD,2023-01-14 05:58:20,15.08838812,0.0002616,53.2149,93.6592,38.7925,321.3255,8.563200000000001e-05,1.075e-05,0.0,0 STARLINK-3529,1 51724U 22016L   23014.24884283  .00001075  00000-0  85632-4 0  9990,2 51724  53.2149  93.6592 0002616  38.7925 321.3255 15.08838812 50806,6917.884,95.438,541.559,537.939,0.0
51724.0,STARLINK-3529,PAYLOAD,2023-01-14 13:55:15,15.08852801,0.000245,53.2159,92.1709,38.833,321.2838,0.00025398,3.758e-05,0.0,0 STARLINK-3529,1 51724U 22016L   23014.58003494  .00003758  00000-0  25398-3 0  9996,2 51724  53.2159  92.1709 0002450  38.8330 321.2838 15.08852801 50853,6917.840999999999,95.437,541.401,538.011,0.0
51724.0,STARLINK-3529,PAYLOAD,2023-01-14 21:52:11,15.08835634,0.0002796,53.215,90.6829,43.3762,316.745,5.9135e-05,6.53e-06,0.0,0 STARLINK-3529,1 51724U 22016L   23014.91124529  .00000653  00000-0  59135-4 0  9994,2 51724  53.2150  90.6829 0002796  43.3762 316.7450 15.08835634 50903,6917.894,95.438,541.693,537.8240000000001,0.0
